IDEFIX & ARIANE 42P R/B 
1 27422U 02021B   25344.41561300  .00000543  00000+0  22291-3 0  9990
2 27422  98.5782 279.1366 0012936  89.8800 270.3865 14.30947773231255
AQUA                    
1 27424U 02022A   25344.90050373  .00001759  00000+0  36227-3 0  9994
2 27424  98.4036 305.7497 0001020 114.8286 257.5742 14.61802151255765
CZ-4B R/B               
1 27432U 02024C   25344.89929524  .00000092  00000+0  70870-4 0  9998
2 27432  98.8999  33.6773 0049156 275.2358 258.2707 14.14527313216683
MIDORI II (ADEOS-II)    
1 27597U 02056A   25344.61515003  .00000481  00000+0  20701-3 0  9997
2 27597  98.7632 297.5602 0000077 121.3907 238.7282 14.29203564197572
H-2A R/B                
1 27601U 02056E   25344.67820437  .00000601  00000+0  22487-3 0  9996
2 27601  98.3062 303.5170 0071434  67.1829 104.7602 14.33673558201353
CZ-4B R/B               
1 28059U 03049C   25344.94506797  .00000612  00000+0  15191-3 0  9993
2 28059  98.6788 331.4412 0048910 141.4408 219.0297 14.54906611173697
CZ-2C R/B               
1 28222U 04012C   25344.93817772  .00052139  00000+0  76178-3 0  9996
2 28222  97.7424  37.4101 0016607 277.6649  82.2718 15.55323768190449
SL-16 R/B               
1 28353U 04021B   25344.92439686 -.00000208  00000+0 -83252-4 0  9998
2 28353  71.0019  58.7749 0005387 203.1702 156.9178 14.14581221110287
CZ-4B R/B               
1 28415U 04035C   25344.33385411  .00011681  00000+0  43294-3 0  9999
2 28415  97.3612  14.7097 0031681 286.5032  73.2727 15.27305306166264
CZ-2C R/B               
1 28480U 04046B   25344.50476943  .00000331  00000+0  13754-3 0  9991
2 28480  98.1988 260.0215 0140570  58.8658 302.6225 14.26939012 95786
ARIANE 5 R/B            
1 28499U 04049H   25344.69853190  .00001784  00000+0  20381-3 0  9994
2 28499  98.2522 144.9066 0083363 279.6784  79.5020 14.85004515132583
CZ-2D R/B               
1 28738U 05024B   25344.98236993  .00039252  00000+0  62776-3 0  9997
2 28738  97.3639 352.3826 0005778  12.5226 347.6170 15.53034585125983
