CCSDS_OMM_VERS = 2.0
CREATION_DATE  = 
ORIGINATOR     = 

OBJECT_NAME    = IDEFIX & ARIANE 42P R/B
OBJECT_ID      = 2002-021B
CENTER_NAME    = EARTH
REF_FRAME      = TEME
TIME_SYSTEM    = UTC
MEAN_ELEMENT_THEORY = SGP/SGP4

EPOCH          = 2025-12-10T09:58:28.963200
MEAN_MOTION    = 14.30947773
ECCENTRICITY   = .00129363
INCLINATION    = 98.5782
RA_OF_ASC_NODE = 279.1366
ARG_OF_PERICENTER = 89.8800
MEAN_ANOMALY   = 270.3865

EPHEMERIS_TYPE = 0
CLASSIFICATION_TYPE = U
NORAD_CAT_ID   = 27422
ELEMENT_SET_NO = 999
REV_AT_EPOCH   = 23125
BSTAR          = .22290906E-3
MEAN_MOTION_DOT = .543E-5
MEAN_MOTION_DDOT = 0

CCSDS_OMM_VERS = 2.0
CREATION_DATE  = 
ORIGINATOR     = 

OBJECT_NAME    = AQUA
OBJECT_ID      = 2002-022A
CENTER_NAME    = EARTH
REF_FRAME      = TEME
TIME_SYSTEM    = UTC
MEAN_ELEMENT_THEORY = SGP/SGP4

EPOCH          = 2025-12-10T21:36:43.522272
MEAN_MOTION    = 14.61802151
ECCENTRICITY   = .00010207
INCLINATION    = 98.4036
RA_OF_ASC_NODE = 305.7497
ARG_OF_PERICENTER = 114.8286
MEAN_ANOMALY   = 257.5742

EPHEMERIS_TYPE = 0
CLASSIFICATION_TYPE = U
NORAD_CAT_ID   = 27424
ELEMENT_SET_NO = 999
REV_AT_EPOCH   = 25576
BSTAR          = .3622738E-3
MEAN_MOTION_DOT = .1759E-4
MEAN_MOTION_DDOT = 0

CCSDS_OMM_VERS = 2.0
CREATION_DATE  = 
ORIGINATOR     = 

OBJECT_NAME    = CZ-4B R/B
OBJECT_ID      = 2002-024C
CENTER_NAME    = EARTH
REF_FRAME      = TEME
TIME_SYSTEM    = UTC
MEAN_ELEMENT_THEORY = SGP/SGP4

EPOCH          = 2025-12-10T21:34:59.108736
MEAN_MOTION    = 14.14527313
ECCENTRICITY   = .00491567
INCLINATION    = 98.8999
RA_OF_ASC_NODE = 33.6773
ARG_OF_PERICENTER = 275.2358
MEAN_ANOMALY   = 258.2707

EPHEMERIS_TYPE = 0
CLASSIFICATION_TYPE = U
NORAD_CAT_ID   = 27432
ELEMENT_SET_NO = 999
REV_AT_EPOCH   = 21668
BSTAR          = .70869646E-4
MEAN_MOTION_DOT = .92E-6
MEAN_MOTION_DDOT = 0

CCSDS_OMM_VERS = 2.0
CREATION_DATE  = 
ORIGINATOR     = 

OBJECT_NAME    = MIDORI II (ADEOS-II)
OBJECT_ID      = 2002-056A
CENTER_NAME    = EARTH
REF_FRAME      = TEME
TIME_SYSTEM    = UTC
MEAN_ELEMENT_THEORY = SGP/SGP4

EPOCH          = 2025-12-10T14:45:48.962592
MEAN_MOTION    = 14.29203564
ECCENTRICITY   = .0000077
INCLINATION    = 98.7632
RA_OF_ASC_NODE = 297.5602
ARG_OF_PERICENTER = 121.3907
MEAN_ANOMALY   = 238.7282

EPHEMERIS_TYPE = 0
CLASSIFICATION_TYPE = U
NORAD_CAT_ID   = 27597
ELEMENT_SET_NO = 999
REV_AT_EPOCH   = 19757
BSTAR          = .20701E-3
MEAN_MOTION_DOT = .481E-5
MEAN_MOTION_DDOT = 0

CCSDS_OMM_VERS = 2.0
CREATION_DATE  = 
ORIGINATOR     = 

OBJECT_NAME    = H-2A R/B
OBJECT_ID      = 2002-056E
CENTER_NAME    = EARTH
REF_FRAME      = TEME
TIME_SYSTEM    = UTC
MEAN_ELEMENT_THEORY = SGP/SGP4

EPOCH          = 2025-12-10T16:16:36.857568
MEAN_MOTION    = 14.33673558
ECCENTRICITY   = .00714341
INCLINATION    = 98.3062
RA_OF_ASC_NODE = 303.5170
ARG_OF_PERICENTER = 67.1829
MEAN_ANOMALY   = 104.7602

EPHEMERIS_TYPE = 0
CLASSIFICATION_TYPE = U
NORAD_CAT_ID   = 27601
ELEMENT_SET_NO = 999
REV_AT_EPOCH   = 20135
BSTAR          = .22487161E-3
MEAN_MOTION_DOT = .601E-5
MEAN_MOTION_DDOT = 0

CCSDS_OMM_VERS = 2.0
CREATION_DATE  = 
ORIGINATOR     = 

OBJECT_NAME    = CZ-4B R/B
OBJECT_ID      = 2003-049C
CENTER_NAME    = EARTH
REF_FRAME      = TEME
TIME_SYSTEM    = UTC
MEAN_ELEMENT_THEORY = SGP/SGP4

EPOCH          = 2025-12-10T22:40:53.872608
MEAN_MOTION    = 14.54906611
ECCENTRICITY   = .00489106
INCLINATION    = 98.6788
RA_OF_ASC_NODE = 331.4412
ARG_OF_PERICENTER = 141.4408
MEAN_ANOMALY   = 219.0297

EPHEMERIS_TYPE = 0
CLASSIFICATION_TYPE = U
NORAD_CAT_ID   = 28059
ELEMENT_SET_NO = 999
REV_AT_EPOCH   = 17369
BSTAR          = .15190692E-3
MEAN_MOTION_DOT = .612E-5
MEAN_MOTION_DDOT = 0

CCSDS_OMM_VERS = 2.0
CREATION_DATE  = 
ORIGINATOR     = 

OBJECT_NAME    = CZ-2C R/B
OBJECT_ID      = 2004-012C
CENTER_NAME    = EARTH
REF_FRAME      = TEME
TIME_SYSTEM    = UTC
MEAN_ELEMENT_THEORY = SGP/SGP4

EPOCH          = 2025-12-10T22:30:58.555008
MEAN_MOTION    = 15.55323768
ECCENTRICITY   = .00166078
INCLINATION    = 97.7424
RA_OF_ASC_NODE = 37.4101
ARG_OF_PERICENTER = 277.6649
MEAN_ANOMALY   = 82.2718

EPHEMERIS_TYPE = 0
CLASSIFICATION_TYPE = U
NORAD_CAT_ID   = 28222
ELEMENT_SET_NO = 999
REV_AT_EPOCH   = 19044
BSTAR          = .76177681E-3
MEAN_MOTION_DOT = .52139E-3
MEAN_MOTION_DDOT = 0

CCSDS_OMM_VERS = 2.0
CREATION_DATE  = 
ORIGINATOR     = 

OBJECT_NAME    = SL-16 R/B
OBJECT_ID      = 2004-021B
CENTER_NAME    = EARTH
REF_FRAME      = TEME
TIME_SYSTEM    = UTC
MEAN_ELEMENT_THEORY = SGP/SGP4

EPOCH          = 2025-12-10T22:11:07.888704
MEAN_MOTION    = 14.14581221
ECCENTRICITY   = .00053875
INCLINATION    = 71.0019
RA_OF_ASC_NODE = 58.7749
ARG_OF_PERICENTER = 203.1702
MEAN_ANOMALY   = 156.9178

EPHEMERIS_TYPE = 0
CLASSIFICATION_TYPE = U
NORAD_CAT_ID   = 28353
ELEMENT_SET_NO = 999
REV_AT_EPOCH   = 11028
BSTAR          = -.83251771E-4
MEAN_MOTION_DOT = -.208E-5
MEAN_MOTION_DDOT = 0

CCSDS_OMM_VERS = 2.0
CREATION_DATE  = 
ORIGINATOR     = 

OBJECT_NAME    = CZ-4B R/B
OBJECT_ID      = 2004-035C
CENTER_NAME    = EARTH
REF_FRAME      = TEME
TIME_SYSTEM    = UTC
MEAN_ELEMENT_THEORY = SGP/SGP4

EPOCH          = 2025-12-10T08:00:44.995104
MEAN_MOTION    = 15.27305306
ECCENTRICITY   = .0031681
INCLINATION    = 97.3612
RA_OF_ASC_NODE = 14.7097
ARG_OF_PERICENTER = 286.5032
MEAN_ANOMALY   = 73.2727

EPHEMERIS_TYPE = 0
CLASSIFICATION_TYPE = U
NORAD_CAT_ID   = 28415
ELEMENT_SET_NO = 999
REV_AT_EPOCH   = 16626
BSTAR          = .43294E-3
MEAN_MOTION_DOT = .11681E-3
MEAN_MOTION_DDOT = 0

CCSDS_OMM_VERS = 2.0
CREATION_DATE  = 
ORIGINATOR     = 

OBJECT_NAME    = CZ-2C R/B
OBJECT_ID      = 2004-046B
CENTER_NAME    = EARTH
REF_FRAME      = TEME
TIME_SYSTEM    = UTC
MEAN_ELEMENT_THEORY = SGP/SGP4

EPOCH          = 2025-12-10T12:06:52.078752
MEAN_MOTION    = 14.26939012
ECCENTRICITY   = .01405707
INCLINATION    = 98.1988
RA_OF_ASC_NODE = 260.0215
ARG_OF_PERICENTER = 58.8658
MEAN_ANOMALY   = 302.6225

EPHEMERIS_TYPE = 0
CLASSIFICATION_TYPE = U
NORAD_CAT_ID   = 28480
ELEMENT_SET_NO = 999
REV_AT_EPOCH   = 9578
BSTAR          = .13753932E-3
MEAN_MOTION_DOT = .331E-5
MEAN_MOTION_DDOT = 0

CCSDS_OMM_VERS = 2.0
CREATION_DATE  = 
ORIGINATOR     = 

OBJECT_NAME    = ARIANE 5 R/B
OBJECT_ID      = 2004-049H
CENTER_NAME    = EARTH
REF_FRAME      = TEME
TIME_SYSTEM    = UTC
MEAN_ELEMENT_THEORY = SGP/SGP4

EPOCH          = 2025-12-10T16:45:53.156160
MEAN_MOTION    = 14.85004515
ECCENTRICITY   = .00833631
INCLINATION    = 98.2522
RA_OF_ASC_NODE = 144.9066
ARG_OF_PERICENTER = 279.6784
MEAN_ANOMALY   = 79.5020

EPHEMERIS_TYPE = 0
CLASSIFICATION_TYPE = U
NORAD_CAT_ID   = 28499
ELEMENT_SET_NO = 999
REV_AT_EPOCH   = 13258
BSTAR          = .20381363E-3
MEAN_MOTION_DOT = .1784E-4
MEAN_MOTION_DDOT = 0

CCSDS_OMM_VERS = 2.0
CREATION_DATE  = 
ORIGINATOR     = 

OBJECT_NAME    = CZ-2D R/B
OBJECT_ID      = 2005-024B
CENTER_NAME    = EARTH
REF_FRAME      = TEME
TIME_SYSTEM    = UTC
MEAN_ELEMENT_THEORY = SGP/SGP4

EPOCH          = 2025-12-10T23:34:36.761952
MEAN_MOTION    = 15.53034585
ECCENTRICITY   = .00057783
INCLINATION    = 97.3639
RA_OF_ASC_NODE = 352.3826
ARG_OF_PERICENTER = 12.5226
MEAN_ANOMALY   = 347.6170

EPHEMERIS_TYPE = 0
CLASSIFICATION_TYPE = U
NORAD_CAT_ID   = 28738
ELEMENT_SET_NO = 999
REV_AT_EPOCH   = 12598
BSTAR          = .62775909E-3
MEAN_MOTION_DOT = .39252E-3
MEAN_MOTION_DDOT = 0

